QIANFAN-81              
1 63167U 25046J   25335.74984352  .00000136  00000+0  19160-3 0  9999
2 63167  88.9754 321.0101 0015534 146.2255 213.9889 13.50998666 46000
QIANFAN-82              
1 63168U 25046K   25335.78367935  .00000093  00000+0  12541-3 0  9994
2 63168  88.9755 321.0505 0013465 152.6797 207.5065 13.50972565 45995
QIANFAN-83              
1 63169U 25046L   25335.75228970  .00000073  00000+0  78740-4 0  9999
2 63169  88.9755 320.8516 0015167 140.0422 220.1854 13.61970681 46102
QIANFAN-84              
1 63170U 25046M   25335.81157360 -.00000016  00000+0 -43904-4 0  9995
2 63170  88.9751 321.1805 0016493 150.8335 209.3740 13.50984824 45924
QIANFAN-85              
1 63171U 25046N   25335.80824594  .00000134  00000+0  18796-3 0  9994
2 63171  88.9754 321.0524 0013851 151.6564 208.5344 13.50972693 45992
QIANFAN-86              
1 63172U 25046P   25335.81657417  .00000115  00000+0  15920-3 0  9999
2 63172  88.9756 320.9135 0011620 154.3741 205.7988 13.50972761 46079
QIANFAN-87              
1 63173U 25046Q   25335.78788932  .00000049  00000+0  56942-4 0  9999
2 63173  88.9752 321.0286 0012404 150.4630 209.7224 13.50971507 46007
QIANFAN-88              
1 63174U 25046R   25335.80426789  .00000098  00000+0  13311-3 0  9998
2 63174  88.9755 320.9811 0012557 158.2273 201.9415 13.50977334 46034
